{"type": "FeatureCollection", "features": [ {"type": "Feature", "properties": {"norad_id": 30481, "name": "FENGYUN 1C DEB", "group": "fengyun-1c-debris", "lat": -77.47630476499558, "lon": 139.56358582658504, "alt_km": 611.7561773822999, "timestamp": "2025-12-09T11:33:55.076561+00:00", "meta": {"OBJECT_NAME": "FENGYUN 1C DEB", "OBJECT_ID": "1999-025AGT", "EPOCH": "2025-12-09T00:35:20.897088", "MEAN_MOTION": 14.39011649, "ECCENTRICITY": 0.0223077, "INCLINATION": 98.3367, "RA_OF_ASC_NODE": 0.4284, "ARG_OF_PERICENTER": 271.2114, "MEAN_ANOMALY": 141.9453, "EPHEMERIS_TYPE": 0, "CLASSIFICATION_TYPE": "U", "NORAD_CAT_ID": 30481, "ELEMENT_SET_NO": 999, "REV_AT_EPOCH": 98430, "BSTAR": 0.00073601, "MEAN_MOTION_DOT": 2.987e-05, "MEAN_MOTION_DDOT": 0}, "tle": {"line1": "1 30481U 99025AGT 25343.02454742  .00002987  00000+0  73601-3 0  9991", "line2": "2 30481  98.3367   0.4284 0223077 271.2114 141.9453 14.39011649984300"}}, "geometry": {"type": "Point", "coordinates": [139.56358582658504, -77.47630476499558]}}, {"type": "Feature", "properties": {"norad_id": 30486, "name": "FENGYUN 1C DEB", "group": "fengyun-1c-debris", "lat": 17.91052832399944, "lon": 13.835931531960135, "alt_km": 277.45939610808455, "timestamp": "2025-12-09T11:33:55.076571+00:00", "meta": {"OBJECT_NAME": "FENGYUN 1C DEB", "OBJECT_ID": "1999-025AGY", "EPOCH": "2025-12-08T14:29:20.014368", "MEAN_MOTION": 15.99767569, "ECCENTRICITY": 0.001366, "INCLINATION": 98.7962, "RA_OF_ASC_NODE": 15.5505, "ARG_OF_PERICENTER": 212.7761, "MEAN_ANOMALY": 147.2666, "EPHEMERIS_TYPE": 0, "CLASSIFICATION_TYPE": "U", "NORAD_CAT_ID": 30486, "ELEMENT_SET_NO": 999, "REV_AT_EPOCH": 1688, "BSTAR": 0.0026441, "MEAN_MOTION_DOT": 0.0131843, "MEAN_MOTION_DDOT": 0.00093502}, "tle": {"line1": "1 30486U 99025AGY 25342.60370387  .01318430  93502-3  26441-2 0  9997", "line2": "2 30486  98.7962  15.5505 0013660 212.7761 147.2666 15.99767569 16886"}}, "geometry": {"type": "Point", "coordinates": [13.835931531960135, 17.91052832399944]}}, {"type": "Feature", "properties": {"norad_id": 30489, "name": "FENGYUN 1C DEB", "group": "fengyun-1c-debris", "lat": 27.684228092819247, "lon": -5.948073483181068, "alt_km": 877.3127377289966, "timestamp": "2025-12-09T11:33:55.076582+00:00", "meta": {"OBJECT_NAME": "FENGYUN 1C DEB", "OBJECT_ID": "1999-025AHB", "EPOCH": "2025-12-08T23:51:26.778816", "MEAN_MOTION": 14.15813265, "ECCENTRICITY": 0.0138932, "INCLINATION": 98.4686, "RA_OF_ASC_NODE": 358.0713, "ARG_OF_PERICENTER": 275.9145, "MEAN_ANOMALY": 145.7191, "EPHEMERIS_TYPE": 0, "CLASSIFICATION_TYPE": "U", "NORAD_CAT_ID": 30489, "ELEMENT_SET_NO": 999, "REV_AT_EPOCH": 97334, "BSTAR": 0.00041354, "MEAN_MOTION_DOT": 8.5e-06, "MEAN_MOTION_DDOT": 0}, "tle": {"line1": "1 30489U 99025AHB 25342.99405994  .00000850  00000+0  41354-3 0  9996", "line2": "2 30489  98.4686 358.0713 0138932 275.9145 145.7191 14.15813265973343"}}, "geometry": {"type": "Point", "coordinates": [-5.948073483181068, 27.684228092819247]}}, {"type": "Feature", "properties": {"norad_id": 30490, "name": "FENGYUN 1C DEB", "group": "fengyun-1c-debris", "lat": -47.82086808832827, "lon": 124.06541664437059, "alt_km": 523.8341116365309, "timestamp": "2025-12-09T11:33:55.076592+00:00", "meta": {"OBJECT_NAME": "FENGYUN 1C DEB", "OBJECT_ID": "1999-025AHC", "EPOCH": "2025-12-09T02:20:42.944064", "MEAN_MOTION": 15.2733378, "ECCENTRICITY": 0.0048854, "INCLINATION": 98.3326, "RA_OF_ASC_NODE": 114.3275, "ARG_OF_PERICENTER": 132.4527, "MEAN_ANOMALY": 228.0856, "EPHEMERIS_TYPE": 0, "CLASSIFICATION_TYPE": "U", "NORAD_CAT_ID": 30490, "ELEMENT_SET_NO": 999, "REV_AT_EPOCH": 99440, "BSTAR": 0.0046381, "MEAN_MOTION_DOT": 0.00130517, "MEAN_MOTION_DDOT": 0}, "tle": {"line1": "1 30490U 99025AHC 25343.09771926  .00130517  00000+0  46381-2 0  9999", "line2": "2 30490  98.3326 114.3275 0048854 132.4527 228.0856 15.27333780994401"}}, "geometry": {"type": "Point", "coordinates": [124.06541664437059, -47.82086808832827]}}, {"type": "Feature", "properties": {"norad_id": 30492, "name": "FENGYUN 1C DEB", "group": "fengyun-1c-debris", "lat": 72.19965736838638, "lon": -43.70091135410325, "alt_km": 645.7186645872198, "timestamp": "2025-12-09T11:33:55.076602+00:00", "meta": {"OBJECT_NAME": "FENGYUN 1C DEB", "OBJECT_ID": "1999-025AHE", "EPOCH": "2025-12-08T23:38:18.079872", "MEAN_MOTION": 14.51689789, "ECCENTRICITY": 0.0095125, "INCLINATION": 102.3263, "RA_OF_ASC_NODE": 358.4973, "ARG_OF_PERICENTER": 73.2087, "MEAN_ANOMALY": 287.9502, "EPHEMERIS_TYPE": 0, "CLASSIFICATION_TYPE": "U", "NORAD_CAT_ID": 30492, "ELEMENT_SET_NO": 999, "REV_AT_EPOCH": 96840, "BSTAR": 0.0036042, "MEAN_MOTION_DOT": 0.00015295, "MEAN_MOTION_DDOT": 0}, "tle": {"line1": "1 30492U 99025AHE 25342.98493148  .00015295  00000+0  36042-2 0  9993", "line2": "2 30492 102.3263 358.4973 0095125  73.2087 287.9502 14.51689789968403"}}, "geometry": {"type": "Point", "coordinates": [-43.70091135410325, 72.19965736838638]}}, {"type": "Feature", "properties": {"norad_id": 30493, "name": "FENGYUN 1C DEB", "group": "fengyun-1c-debris", "lat": 10.279275908068662, "lon": 172.48093557667747, "alt_km": 1027.1380459902393, "timestamp": "2025-12-09T11:33:55.076612+00:00", "meta": {"OBJECT_NAME": "FENGYUN 1C DEB", "OBJECT_ID": "1999-025AHF", "EPOCH": "2025-12-09T00:11:52.405152", "MEAN_MOTION": 13.9291356, "ECCENTRICITY": 0.0181505, "INCLINATION": 98.5706, "RA_OF_ASC_NODE": 173.6093, "ARG_OF_PERICENTER": 227.1307, "MEAN_ANOMALY": 288.3947, "EPHEMERIS_TYPE": 0, "CLASSIFICATION_TYPE": "U", "NORAD_CAT_ID": 30493, "ELEMENT_SET_NO": 999, "REV_AT_EPOCH": 95043, "BSTAR": 0.0040498, "MEAN_MOTION_DOT": 5.979e-05, "MEAN_MOTION_DDOT": 0}, "tle": {"line1": "1 30493U 99025AHF 25343.00824543  .00005979  00000+0  40498-2 0  9993", "line2": "2 30493  98.5706 173.6093 0181505 227.1307 288.3947 13.92913560950438"}}, "geometry": {"type": "Point", "coordinates": [172.48093557667747, 10.279275908068662]}}, {"type": "Feature", "properties": {"norad_id": 30494, "name": "FENGYUN 1C DEB", "group": "fengyun-1c-debris", "lat": 79.47571150688215, "lon": -42.75742620803502, "alt_km": 1070.6764959405891, "timestamp": "2025-12-09T11:33:55.076622+00:00", "meta": {"OBJECT_NAME": "FENGYUN 1C DEB", "OBJECT_ID": "1999-025AHG", "EPOCH": "2025-12-07T01:41:28.106016", "MEAN_MOTION": 13.793444, "ECCENTRICITY": 0.01856403, "INCLINATION": 99.2827, "RA_OF_ASC_NODE": 16.5615, "ARG_OF_PERICENTER": 237.1866, "MEAN_ANOMALY": 121.1289, "EPHEMERIS_TYPE": 0, "CLASSIFICATION_TYPE": "U", "NORAD_CAT_ID": 30494, "ELEMENT_SET_NO": 999, "REV_AT_EPOCH": 94408, "BSTAR": 0.0022953842, "MEAN_MOTION_DOT": 2.638e-05, "MEAN_MOTION_DDOT": 0}, "tle": {"line1": "1 30494U 99025AHG 25341.07046419  .00002638  00000+0  22954-2 0  9993", "line2": "2 30494  99.2827  16.5615 0185640 237.1866 121.1289 13.79344400944084"}}, "geometry": {"type": "Point", "coordinates": [-42.75742620803502, 79.47571150688215]}}, {"type": "Feature", "properties": {"norad_id": 30495, "name": "FENGYUN 1C DEB", "group": "fengyun-1c-debris", "lat": 3.3461071822630797, "lon": 71.13497980568893, "alt_km": 1260.8616076296585, "timestamp": "2025-12-09T11:33:55.076632+00:00", "meta": {"OBJECT_NAME": "FENGYUN 1C DEB", "OBJECT_ID": "1999-025AHH", "EPOCH": "2025-12-07T16:52:58.296000", "MEAN_MOTION": 12.94355342, "ECCENTRICITY": 0.05967428, "INCLINATION": 102.2606, "RA_OF_ASC_NODE": 69.8716, "ARG_OF_PERICENTER": 276.9515, "MEAN_ANOMALY": 76.4096, "EPHEMERIS_TYPE": 0, "CLASSIFICATION_TYPE": "U", "NORAD_CAT_ID": 30495, "ELEMENT_SET_NO": 999, "REV_AT_EPOCH": 88608, "BSTAR": 0.0054623354, "MEAN_MOTION_DOT": 3.361e-05, "MEAN_MOTION_DDOT": 0}, "tle": {"line1": "1 30495U 99025AHH 25341.70345250  .00003361  00000+0  54623-2 0  9991", "line2": "2 30495 102.2606  69.8716 0596742 276.9515  76.4096 12.94355342886085"}}, "geometry": {"type": "Point", "coordinates": [71.13497980568893, 3.3461071822630797]}}, {"type": "Feature", "properties": {"norad_id": 30496, "name": "FENGYUN 1C DEB", "group": "fengyun-1c-debris", "lat": 48.32970464084978, "lon": -121.0661361964656, "alt_km": 532.5742419430899, "timestamp": "2025-12-09T11:33:55.076642+00:00", "meta": {"OBJECT_NAME": "FENGYUN 1C DEB", "OBJECT_ID": "1999-025AHJ", "EPOCH": "2025-12-08T06:25:02.070048", "MEAN_MOTION": 14.94168932, "ECCENTRICITY": 0.01301407, "INCLINATION": 98.7828, "RA_OF_ASC_NODE": 247.5799, "ARG_OF_PERICENTER": 111.7663, "MEAN_ANOMALY": 249.7462, "EPHEMERIS_TYPE": 0, "CLASSIFICATION_TYPE": "U", "NORAD_CAT_ID": 30496, "ELEMENT_SET_NO": 999, "REV_AT_EPOCH": 1077, "BSTAR": 0.00063322731, "MEAN_MOTION_DOT": 7.945e-05, "MEAN_MOTION_DDOT": 0}, "tle": {"line1": "1 30496U 99025AHJ 25342.26738507  .00007945  00000+0  63323-3 0  9995", "line2": "2 30496  98.7828 247.5799 0130140 111.7663 249.7462 14.94168932 10779"}}, "geometry": {"type": "Point", "coordinates": [-121.0661361964656, 48.32970464084978]}}, {"type": "Feature", "properties": {"norad_id": 30498, "name": "FENGYUN 1C DEB", "group": "fengyun-1c-debris", "lat": 56.16359756855793, "lon": -131.40785243249556, "alt_km": 810.6994903448276, "timestamp": "2025-12-09T11:33:55.076652+00:00", "meta": {"OBJECT_NAME": "FENGYUN 1C DEB", "OBJECT_ID": "1999-025AHL", "EPOCH": "2025-12-09T02:42:26.548992", "MEAN_MOTION": 14.0602874, "ECCENTRICITY": 0.0104819, "INCLINATION": 99.237, "RA_OF_ASC_NODE": 34.167, "ARG_OF_PERICENTER": 165.6468, "MEAN_ANOMALY": 250.6355, "EPHEMERIS_TYPE": 0, "CLASSIFICATION_TYPE": "U", "NORAD_CAT_ID": 30498, "ELEMENT_SET_NO": 999, "REV_AT_EPOCH": 95718, "BSTAR": 0.001974, "MEAN_MOTION_DOT": 3.358e-05, "MEAN_MOTION_DDOT": 0}, "tle": {"line1": "1 30498U 99025AHL 25343.11280728  .00003358  00000+0  19740-2 0  9996", "line2": "2 30498  99.2370  34.1670 0104819 165.6468 250.6355 14.06028740957184"}}, "geometry": {"type": "Point", "coordinates": [-131.40785243249556, 56.16359756855793]}}]}